1 08820U 76039A   03198.33484807  .00000003  00000-0  10000-3 0  9347
2 08820 109.8033 191.9164 0044512 294.8029  64.7950  6.38664421378981
